METEOR-M2 2             
1 44387U 19038A   21148.86399172 -.00000055  00000-0 -48048-5 0  9999
2 44387  98.6686 108.9697 0001012  15.4726 344.6494 14.23688104 98682
VDNH-80                 
1 44392U 19038G   21148.83562370  .00001428  00000-0  82743-4 0  9996
2 44392  97.5851 113.5378 0022008  24.5522  32.4496 15.13659171104629
D-STAR ONE (LIGHTSAT)   
1 44393U 19038H   21148.42420288  .00001771  00000-0  10199-3 0  9999
2 44393  97.5870 113.0070 0022304  25.9898 334.2448 15.13549784104757
AMGU-1 (AMURSAT)        
1 44394U 19038J   21148.57242210  .00001269  00000-0  74160-4 0  9994
2 44394  97.5853 113.1017 0022439  25.8722 334.3625 15.13542183104771
DOT-1                   
1 44399U 19038P   21148.45174604  .00001229  00000-0  73662-4 0  9999
2 44399  97.5892 112.4728 0025260  28.5754 331.6855 15.12639892104712
SOKRAT                  
1 44404U 19038U   21148.45729675  .00001830  00000-0  10576-3 0  9992
2 44404  97.5861 112.7749 0022647  27.5666 332.6761 15.13373348104740
LUCKY-7                 
1 44406U 19038W   21148.47712222  .00000978  00000-0  58972-4 0  9991
2 44406  97.5885 112.7032 0024888  21.4650 338.7619 15.12917720104722
D-STAR ONE (EXOCONNECT) 
1 44410U 19038AA  21148.42908685  .00002852  00000-0  15940-3 0  9991
2 44410  97.5836 113.0044 0022264  25.9323 334.3019 15.14112782104769
NARSSCUBE-2             
1 44415U 19022E   21148.58326673  .00000588  00000-0  31462-4 0  9999
2 44415  51.6417 173.8472 0011763 111.7633 248.4601 15.31016558101109
KRAKSAT                 
1 44427U 98067QM  21148.74417031  .00021463  00000-0  20594-3 0  9993
2 44427  51.6403  40.6262 0004734 150.1028 309.8375 15.66557965108387
ENTRYSAT                
1 44429U 98067QP  21148.55045147  .00090245  00000-0  41930-3 0  9990
2 44429  51.6295  22.7645 0004111 181.5038 178.5953 15.82633701108601
NARSSCUBE-1             
1 44792U 98067QX  21148.74356275  .00025220  00000-0  24997-3 0  9996
2 44792  51.6377  51.2749 0003813 186.8724 173.2220 15.65640236 86476
DUCHIFAT-3              
1 44854U 19089C   21148.88310276  .00000474  00000-0  44281-4 0  9991
2 44854  36.9651 216.3679 0009397 337.1974  22.8351 14.99484357 80163
OPS-SAT                 
1 44878U 19092F   21148.46113533  .00001398  00000-0  75139-4 0  9994
2 44878  97.4749 332.2482 0012389 235.7212 124.2849 15.16490123 79808
FLORIPASAT-1            
1 44885U 19093G   21148.77710238  .00000340  00000-0  49195-4 0  9991
2 44885  97.9252 228.3717 0014887  11.8513 348.3046 14.82289122 77856
HUSKYSAT-1 (HO-107)     
1 45119U 19071J   21148.50458212  .00003228  00000-0  10242-3 0  9998
2 45119  51.6406 133.6082 0010788 216.3862 143.6389 15.35684318 74109
G-SAT                   
1 45597U 98067RK  21148.39631923  .00014969  00000-0  20583-3 0  9992
2 45597  51.6407  69.2529 0002602 248.1528 111.9188 15.57509553 61481
QUETZAL-1               
1 45598U 98067RL  21148.18963796  .00020939  00000-0  26878-3 0  9993
2 45598  51.6409  69.3701 0000277 311.7290  48.3680 15.59081405 61399
BY70-2                  
1 45857U 20042B   21148.86338288  .00001410  00000-0  20731-3 0  9991
2 45857  97.9829 224.8143 0009096 277.3362  82.6802 14.76980385 48653
SALSAT                  
1 46495U 20068K   21148.56109016  .00000697  00000-0  55598-4 0  9996
2 46495  97.6936  86.1743 0018169 136.1430 224.1239 15.03454379 36342
NETSAT-4                
1 46504U 20068U   21148.38271918  .00000485  00000-0  41510-4 0  9992
2 46504  97.6840  85.3987 0010519 192.3638 167.7331 15.02073924 36227
NETSAT-3                
1 46505U 20068V   21148.25558604 -.00000002  00000-0  44998-5 0  9999
2 46505  97.6852  85.2530 0008833 195.1242 164.9718 15.02034473 36215
NETSAT-1                
1 46506U 20068W   21148.32815156 -.00000047  00000-0  10348-5 0  9997
2 46506  97.6869  85.3056 0005555 192.8286 167.2793 15.02012059 36224
NETSAT-2                
1 46507U 20068X   21148.26474532 -.00000019  00000-0  31180-5 0  9996
2 46507  97.6870  85.2415 0004926 185.1870 174.9290 15.01994507 36166
BY70-3                  
1 46839U 20079N   21148.75486641  .00002979  00000-0  94166-4 0  9992
2 46839  97.2405 223.0022 0005061 279.8586 236.4008 15.33566199 31181
SPOC                    
1 46921U 98067RR  21148.52619549  .00010252  00000-0  16237-3 0  9991
2 46921  51.6430  75.3789 0002339  33.5082 326.6057 15.54047978 31766
BOBCAT-1                
1 46922U 98067RS  21148.49704874  .00013417  00000-0  19879-3 0  9995
2 46922  51.6437  74.4507 0002332  45.9820 314.1363 15.55583754 31739
NEUTRON-1               
1 46923U 98067RT  21148.41151208  .00010622  00000-0  16872-3 0  9990
2 46923  51.6429  76.1106 0002497  44.6492 315.4699 15.53920502 31772
1998-067RU              
1 46924U 98067RU  21148.51299068  .00024608  00000-0  31699-3 0  9992
2 46924  51.6413  72.2820 0003248  80.1555 279.9804 15.58878748 31801
DESCENT                 
1 46927U 98067RX  21148.28761296  .00010971  00000-0  17421-3 0  9991
2 46927  51.6427  76.7804 0002916  58.4159 301.7116 15.53890206 31661
UVSQ-SAT                
1 47438U 21006AB  21148.41020189  .00001281  00000-0  75883-4 0  9993
2 47438  97.4885 209.9918 0013334 160.6860 199.4879 15.13100619 19024
SOMP2B                  
1 47445U 21006AJ  21148.42246557  .00001231  00000-0  73418-4 0  9998
2 47445  97.4857 209.9281 0012845 164.0356 196.1282 15.12943715 19021
WARP-01                 
1 47924U 98067SA  21148.53058393  .00012726  00000-0  22001-3 0  9994
2 47924  51.6430  79.1364 0005686  43.5784 316.5654 15.51329297 11706
RSP-01                  
1 47925U 98067SB  21148.52833598  .00010237  00000-0  17924-3 0  9995
2 47925  51.6436  79.1263 0001718 357.1647   2.9332 15.51226385 11685
TAUSAT-1                
1 47926U 98067SC  21148.50928159  .00012205  00000-0  20799-3 0  9993
2 47926  51.6432  78.9995 0002699 346.0551  14.0364 15.51788423 11675
TSURU                   
1 47927U 98067SD  21148.53093287  .00009635  00000-0  16993-3 0  9996
2 47927  51.6436  79.1437 0001721 351.6926   8.4035 15.51099325 11686
STARS-EC                
1 47928U 98067SE  21148.53276789  .00013009  00000-0  22580-3 0  9996
2 47928  51.6432  79.1514 0006420  45.9736 314.1781 15.51189590 11669
MAYA-2                  
1 47929U 98067SF  21148.07838383  .00011270  00000-0  19725-3 0  9995
2 47929  51.6435  81.3712 0001732 344.8098  15.2839 15.51122156 11579
HIROGARI (OPUSAT-II)    
1 47930U 98067SG  21148.52240249  .00013573  00000-0  23228-3 0  9996
2 47930  51.6436  79.0876 0001514 349.6770  10.4188 15.51560255 11687
GUARANISAT-1            
1 47931U 98067SH  21148.52873035  .00009477  00000-0  16701-3 0  9998
2 47931  51.6437  79.1297 0001760 344.8220  15.2717 15.51143728 11680
DIY-1 (ARDUIQUBE)       
1 47963U 21022AH  21148.71040587  .00002177  00000-0  14826-3 0  9995
2 47963  97.5602  51.3936 0020554  17.7922 342.4021 15.07165022  8925
